[{"OBJECT_NAME":"SENTINEL-2A","OBJECT_ID":"2015-028A","EPOCH":"2026-02-25T04:19:12.423360","MEAN_MOTION":14.30192923,"ECCENTRICITY":0.00543683,"INCLINATION":98.5024,"RA_OF_ASC_NODE":132.8928,"ARG_OF_PERICENTER":194.7437,"MEAN_ANOMALY":165.2162,"EPHEMERIS_TYPE":0,"CLASSIFICATION_TYPE":"U","NORAD_CAT_ID":40697,"ELEMENT_SET_NO":999,"REV_AT_EPOCH":55771,"BSTAR":7.6852184e-5,"MEAN_MOTION_DOT":1.59e-6,"MEAN_MOTION_DDOT":0},{"OBJECT_NAME":"COSMOS 1048","OBJECT_ID":"1978-105A","EPOCH":"2026-03-09T15:50:11.230080","MEAN_MOTION":14.35224026,"ECCENTRICITY":0.00174853,"INCLINATION":74.0278,"RA_OF_ASC_NODE":157.6322,"ARG_OF_PERICENTER":294.1478,"MEAN_ANOMALY":65.7845,"EPHEMERIS_TYPE":0,"CLASSIFICATION_TYPE":"U","NORAD_CAT_ID":11111,"ELEMENT_SET_NO":999,"REV_AT_EPOCH":47381,"BSTAR":7.6773562e-5,"MEAN_MOTION_DOT":1.94e-6,"MEAN_MOTION_DDOT":0}]
